$$SOE
2460154.500000000, A.D. 2023-Jul-29 00:00:00.0000, -6.054976376016345E+07, 3.800770984946138E+08, -5.924940630372137E+06,
2460161.500000000, A.D. 2023-Aug-05 00:00:00.0000, -7.135570166231441E+07, 3.799537750158703E+08, -8.579343637298182E+06,
2460168.500000000, A.D. 2023-Aug-12 00:00:00.0000, -8.210174457306209E+07, 3.795114472524920E+08, -1.122654788472418E+07,
2460175.500000000, A.D. 2023-Aug-19 00:00:00.0000, -9.277980756746079E+07, 3.787547992030195E+08, -1.386445799647890E+07,
2460182.500000000, A.D. 2023-Aug-26 00:00:00.0000, -1.033820773698628E+08, 3.776886474261628E+08, -1.649104226010182E+07,
2460189.500000000, A.D. 2023-Sep-02 00:00:00.0000, -1.139010070210683E+08, 3.763179282141910E+08, -1.910433161265755E+07,
2460196.500000000, A.D. 2023-Sep-09 00:00:00.0000, -1.243293102500597E+08, 3.746476854683635E+08, -2.170241854945841E+07,
2460203.500000000, A.D. 2023-Sep-16 00:00:00.0000, -1.346599554362901E+08, 3.726830591898562E+08, -2.428345598976012E+07,
2460210.500000000, A.D. 2023-Sep-23 00:00:00.0000, -1.448861587959440E+08, 3.704292748430446E+08, -2.684565612683858E+07,
2460217.500000000, A.D. 2023-Sep-30 00:00:00.0000, -1.550013771777146E+08, 3.678916347522509E+08, -2.938728914576352E+07,
2460224.500000000, A.D. 2023-Oct-07 00:00:00.0000, -1.649993028620468E+08, 3.650755109607075E+08, -3.190668164850384E+07,
2460231.500000000, A.D. 2023-Oct-14 00:00:00.0000, -1.748738593568508E+08, 3.619863362052463E+08, -3.440221516162217E+07,
2460238.500000000, A.D. 2023-Oct-21 00:00:00.0000, -1.846191949950320E+08, 3.586295945738632E+08, -3.687232489922360E+07,
2460245.500000000, A.D. 2023-Oct-28 00:00:00.0000, -1.942296757908369E+08, 3.550108140786200E+08, -3.931549847427917E+07,
2460252.500000000, A.D. 2023-Nov-04 00:00:00.0000, -2.036998788297625E+08, 3.511355603462167E+08, -4.173027451433961E+07,
2460259.500000000, A.D. 2023-Nov-11 00:00:00.0000, -2.130245860351811E+08, 3.470094307965348E+08, -4.411524125313215E+07,
2460266.500000000, A.D. 2023-Nov-18 00:00:00.0000, -2.221987781101322E+08, 3.426380492151785E+08, -4.646903512866920E+07,
2460273.500000000, A.D. 2023-Nov-25 00:00:00.0000, -2.312176285962909E+08, 3.380270607128897E+08, -4.879033939688514E+07,
2460280.500000000, A.D. 2023-Dec-02 00:00:00.0000, -2.400764980348330E+08, 3.331821270303556E+08, -5.107788276731275E+07,
2460287.500000000, A.D. 2023-Dec-09 00:00:00.0000, -2.487709281642167E+08, 3.281089220996153E+08, -5.333043807511170E+07,
2460294.500000000, A.D. 2023-Dec-16 00:00:00.0000, -2.572966358807733E+08, 3.228131278471902E+08, -5.554682101737483E+07,
2460301.500000000, A.D. 2023-Dec-23 00:00:00.0000, -2.656495066266362E+08, 3.173004309026595E+08, -5.772588893282384E+07,
2460308.500000000, A.D. 2023-Dec-30 00:00:00.0000, -2.738255885565545E+08, 3.115765212421045E+08, -5.986653942035362E+07,
2460315.500000000, A.D. 2024-Jan-06 00:00:00.0000, -2.818210892630840E+08, 3.056470903887850E+08, -6.196770883096862E+07,
2460322.500000000, A.D. 2024-Jan-13 00:00:00.0000, -2.896323718881773E+08, 2.995178273443054E+08, -6.402837107364331E+07,
2460329.500000000, A.D. 2024-Jan-20 00:00:00.0000, -2.972559493996624E+08, 2.931944153119213E+08, -6.604753659587361E+07,
2460336.500000000, A.D. 2024-Jan-27 00:00:00.0000, -3.046884790655876E+08, 2.866825298456212E+08, -6.802425130146006E+07,
2460343.500000000, A.D. 2024-Feb-03 00:00:00.0000, -3.119267575557253E+08, 2.799878374595045E+08, -6.995759544505176E+07,
2460350.500000000, A.D. 2024-Feb-10 00:00:00.0000, -3.189677163922193E+08, 2.731159943882987E+08, -7.184668255279821E+07,
2460357.500000000, A.D. 2024-Feb-17 00:00:00.0000, -3.258084176104233E+08, 2.660726454890990E+08, -7.369065838100433E+07,
2460364.500000000, A.D. 2024-Feb-24 00:00:00.0000, -3.324460495942591E+08, 2.588634232824275E+08, -7.548869991480881E+07,
2460371.500000000, A.D. 2024-Mar-02 00:00:00.0000, -3.388779230572785E+08, 2.514939470848489E+08, -7.724001441238485E+07,
2460378.500000000, A.D. 2024-Mar-09 00:00:00.0000, -3.451014670310709E+08, 2.439698221565979E+08, -7.894383851289687E+07,
2460385.500000000, A.D. 2024-Mar-16 00:00:00.0000, -3.511142244656551E+08, 2.362966390491095E+08, -8.059943742876093E+07,
2460392.500000000, A.D. 2024-Mar-23 00:00:00.0000, -3.569138475449750E+08, 2.284799742500184E+08, -8.220610412246783E+07,
2460399.500000000, A.D. 2024-Mar-30 00:00:00.0000, -3.624980949587024E+08, 2.205253920886913E+08, -8.376315826538089E+07,
2460406.500000000, A.D. 2024-Apr-06 00:00:00.0000, -3.678648308732786E+08, 2.124384445267789E+08, -8.526994527804846E+07,
2460413.500000000, A.D. 2024-Apr-13 00:00:00.0000, -3.730120220463049E+08, 2.042246696612167E+08, -8.672583570832606E+07,
2460420.500000000, A.D. 2024-Apr-20 00:00:00.0000, -3.779377340330639E+08, 1.958895916049408E+08, -8.813022463982144E+07,
2460427.500000000, A.D. 2024-Apr-27 00:00:00.0000, -3.826401280018553E+08, 1.874387211749553E+08, -8.948253103763562E+07,
2460434.500000000, A.D. 2024-May-04 00:00:00.0000, -3.871174580687800E+08, 1.788775566775239E+08, -9.078219709709899E+07,
2460441.500000000, A.D. 2024-May-11 00:00:00.0000, -3.913680689110368E+08, 1.702115846817260E+08, -9.202868762511076E+07,
2460448.500000000, A.D. 2024-May-18 00:00:00.0000, -3.953903935742841E+08, 1.614462807960339E+08, -9.322148945910691E+07,
2460455.500000000, A.D. 2024-May-25 00:00:00.0000, -3.991829514472247E+08, 1.525871104342667E+08, -9.436011092585123E+07,
2460462.500000000, A.D. 2024-Jun-01 00:00:00.0000, -4.027443463416277E+08, 1.436395295074895E+08, -9.544408134962258E+07,
2460469.500000000, A.D. 2024-Jun-08 00:00:00.0000, -4.060732644295380E+08, 1.346089850133060E+08, -9.647295063364381E+07,
2460476.500000000, A.D. 2024-Jun-15 00:00:00.0000, -4.091684716362253E+08, 1.255009160622001E+08, -9.744628890615150E+07,
2460483.500000000, A.D. 2024-Jun-22 00:00:00.0000, -4.120288114925917E+08, 1.163207565105268E+08, -9.836368604230750E+07,
2460490.500000000, A.D. 2024-Jun-29 00:00:00.0000, -4.146532055687620E+08, 1.070739373743687E+08, -9.922475101642990E+07,
2460497.500000000, A.D. 2024-Jul-06 00:00:00.0000, -4.170406538439553E+08, 9.776588655019438E+07, -1.000291115296451E+08,
2460504.500000000, A.D. 2024-Jul-13 00:00:00.0000, -4.191902330606286E+08, 8.840202866332206E+07, -1.007764138600184E+08,
2460511.500000000, A.D. 2024-Jul-20 00:00:00.0000, -4.211010950463014E+08, 7.898778618786502E+07, -1.014663226582359E+08,
2460518.500000000, A.D. 2024-Jul-27 00:00:00.0000, -4.227724656590391E+08, 6.952858087475263E+07, -1.020985207074648E+08,
2460525.500000000, A.D. 2024-Aug-03 00:00:00.0000, -4.242036440828974E+08, 6.002983511060796E+07, -1.026727087031575E+08,
2460532.500000000, A.D. 2024-Aug-10 00:00:00.0000, -4.253940023052690E+08, 5.049697320041499E+07, -1.031886050674535E+08,
2460539.500000000, A.D. 2024-Aug-17 00:00:00.0000, -4.263429847264111E+08, 4.093542259176046E+07, -1.036459457995584E+08,
2460546.500000000, A.D. 2024-Aug-24 00:00:00.0000, -4.270501078722100E+08, 3.135061501350649E+07, -1.040444843659554E+08,
2460553.500000000, A.D. 2024-Aug-31 00:00:00.0000, -4.275149600952197E+08, 2.174798746266970E+07, -1.043839916466846E+08,
2460560.500000000, A.D. 2024-Sep-07 00:00:00.0000, -4.277372009001963E+08, 1.213298316224859E+07, -1.046642559622504E+08,
2460567.500000000, A.D. 2024-Sep-14 00:00:00.0000, -4.277165598104241E+08, 2.511053483288676E+06, -1.048850831089100E+08,
2460574.500000000, A.D. 2024-Sep-21 00:00:00.0000, -4.274528368047985E+08, -7.112338758826766E+06, -1.050462961835413E+08,
2460581.500000000, A.D. 2024-Sep-28 00:00:00.0000, -4.269459048151977E+08, -1.673171786424689E+07, -1.051477354184195E+08,
2460588.500000000, A.D. 2024-Oct-05 00:00:00.0000, -4.261957106162314E+08, -2.634159566456880E+07, -1.051892583632068E+08,
2460595.500000000, A.D. 2024-Oct-12 00:00:00.0000, -4.252022744671772E+08, -3.593647081656528E+07, -1.051707401368006E+08,
2460602.500000000, A.D. 2024-Oct-19 00:00:00.0000, -4.239656902562242E+08, -4.551082724866911E+07, -1.050920736098774E+08,
2460609.500000000, A.D. 2024-Oct-26 00:00:00.0000, -4.224861261808022E+08, -5.505913256627794E+07, -1.049531695812103E+08,
2460616.500000000, A.D. 2024-Nov-02 00:00:00.0000, -4.207638257089088E+08, -6.457583656801362E+07, -1.047539569844044E+08,
2460623.500000000, A.D. 2024-Nov-09 00:00:00.0000, -4.187991087267414E+08, -7.405536985560378E+07, -1.044943831328189E+08,
2460630.500000000, A.D. 2024-Nov-16 00:00:00.0000, -4.165923728484014E+08, -8.349214254077652E+07, -1.041744140054359E+08,
2460637.500000000, A.D. 2024-Nov-23 00:00:00.0000, -4.141440948425419E+08, -9.288054310310325E+07, -1.037940345824964E+08,
2460644.500000000, A.D. 2024-Nov-30 00:00:00.0000, -4.114548319697019E+08, -1.022149374457538E+08, -1.033532492539909E+08,
2460651.500000000, A.D. 2024-Dec-07 00:00:00.0000, -4.085252228129884E+08, -1.114896677330597E+08, -1.028520823055607E+08,
2460658.500000000, A.D. 2024-Dec-14 00:00:00.0000, -4.053559882925810E+08, -1.206990497908306E+08, -1.022905783189499E+08,
2460665.500000000, A.D. 2024-Dec-21 00:00:00.0000, -4.019479351847631E+08, -1.298373703162103E+08, -1.016688023763351E+08,
2460672.500000000, A.D. 2024-Dec-28 00:00:00.0000, -3.983019601770035E+08, -1.388988868711368E+08, -1.009868404934019E+08,
2460679.500000000, A.D. 2025-Jan-04 00:00:00.0000, -3.944190518662276E+08, -1.478778282888081E+08, -1.002448003263764E+08,
2460686.500000000, A.D. 2025-Jan-11 00:00:00.0000, -3.903002925237411E+08, -1.567683938386233E+08, -9.944281185027131E+07,
2460693.500000000, A.D. 2025-Jan-18 00:00:00.0000, -3.859468605451751E+08, -1.655647520755291E+08, -9.858102799925660E+07,
2460700.500000000, A.D. 2025-Jan-25 00:00:00.0000, -3.813600333446298E+08, -1.742610398569776E+08, -9.765962533107695E+07,
2460707.500000000, A.D. 2025-Feb-01 00:00:00.0000, -3.765411905072617E+08, -1.828513615665094E+08, -9.667880473660225E+07,
2460714.500000000, A.D. 2025-Feb-08 00:00:00.0000, -3.714918171456715E+08, -1.913297885331739E+08, -9.563879219933075E+07,
$$EOE